CCSDS_OMM_VERS = 2.0
CREATION_DATE  = 
ORIGINATOR     = 

OBJECT_NAME    = SL-3 R/B
OBJECT_ID      = 1982-079B
CENTER_NAME    = EARTH
REF_FRAME      = TEME
TIME_SYSTEM    = UTC
MEAN_ELEMENT_THEORY = SGP/SGP4

EPOCH          = 2025-12-21T13:07:18.883776
MEAN_MOTION    = 15.23682820
ECCENTRICITY   = .00270314
INCLINATION    = 81.1480
RA_OF_ASC_NODE = 285.2789
ARG_OF_PERICENTER = 70.8072
MEAN_ANOMALY   = 289.6083

EPHEMERIS_TYPE = 0
CLASSIFICATION_TYPE = U
NORAD_CAT_ID   = 13403
ELEMENT_SET_NO = 999
REV_AT_EPOCH   = 36579
BSTAR          = .21347907E-3
MEAN_MOTION_DOT = .52E-4
MEAN_MOTION_DDOT = 0

CCSDS_OMM_VERS = 2.0
CREATION_DATE  = 
ORIGINATOR     = 

OBJECT_NAME    = SL-14 R/B
OBJECT_ID      = 1982-092B
CENTER_NAME    = EARTH
REF_FRAME      = TEME
TIME_SYSTEM    = UTC
MEAN_ELEMENT_THEORY = SGP/SGP4

EPOCH          = 2025-12-21T14:58:46.623936
MEAN_MOTION    = 14.86563416
ECCENTRICITY   = .00198401
INCLINATION    = 82.5674
RA_OF_ASC_NODE = 214.4030
ARG_OF_PERICENTER = 196.2267
MEAN_ANOMALY   = 178.0251

EPHEMERIS_TYPE = 0
CLASSIFICATION_TYPE = U
NORAD_CAT_ID   = 13553
ELEMENT_SET_NO = 999
REV_AT_EPOCH   = 31733
BSTAR          = .40497324E-4
MEAN_MOTION_DOT = .385E-5
MEAN_MOTION_DDOT = 0

CCSDS_OMM_VERS = 2.0
CREATION_DATE  = 
ORIGINATOR     = 

OBJECT_NAME    = SL-3 R/B
OBJECT_ID      = 1983-010B
CENTER_NAME    = EARTH
REF_FRAME      = TEME
TIME_SYSTEM    = UTC
MEAN_ELEMENT_THEORY = SGP/SGP4

EPOCH          = 2025-12-21T06:20:22.414848
MEAN_MOTION    = 15.43669610
ECCENTRICITY   = .00167258
INCLINATION    = 81.1051
RA_OF_ASC_NODE = 98.2128
ARG_OF_PERICENTER = 320.8822
MEAN_ANOMALY   = 39.1211

EPHEMERIS_TYPE = 0
CLASSIFICATION_TYPE = U
NORAD_CAT_ID   = 13819
ELEMENT_SET_NO = 999
REV_AT_EPOCH   = 34583
BSTAR          = .24753537E-3
MEAN_MOTION_DOT = .11244E-3
MEAN_MOTION_DDOT = 0

CCSDS_OMM_VERS = 2.0
CREATION_DATE  = 
ORIGINATOR     = 

OBJECT_NAME    = SL-3 R/B
OBJECT_ID      = 1983-075B
CENTER_NAME    = EARTH
REF_FRAME      = TEME
TIME_SYSTEM    = UTC
MEAN_ELEMENT_THEORY = SGP/SGP4

EPOCH          = 2025-12-21T13:56:17.895552
MEAN_MOTION    = 15.36298381
ECCENTRICITY   = .00236773
INCLINATION    = 97.6101
RA_OF_ASC_NODE = 352.3617
ARG_OF_PERICENTER = 144.6452
MEAN_ANOMALY   = 215.6367

EPHEMERIS_TYPE = 0
CLASSIFICATION_TYPE = U
NORAD_CAT_ID   = 14208
ELEMENT_SET_NO = 999
REV_AT_EPOCH   = 31815
BSTAR          = .23565308E-3
MEAN_MOTION_DOT = .8329E-4
MEAN_MOTION_DDOT = 0

CCSDS_OMM_VERS = 2.0
CREATION_DATE  = 
ORIGINATOR     = 

OBJECT_NAME    = COSMOS 1536
OBJECT_ID      = 1984-013A
CENTER_NAME    = EARTH
REF_FRAME      = TEME
TIME_SYSTEM    = UTC
MEAN_ELEMENT_THEORY = SGP/SGP4

EPOCH          = 2025-12-21T14:42:34.951392
MEAN_MOTION    = 15.22612844
ECCENTRICITY   = .00142127
INCLINATION    = 82.5440
RA_OF_ASC_NODE = 185.3636
ARG_OF_PERICENTER = 192.4532
MEAN_ANOMALY   = 167.6355

EPHEMERIS_TYPE = 0
CLASSIFICATION_TYPE = U
NORAD_CAT_ID   = 14699
ELEMENT_SET_NO = 999
REV_AT_EPOCH   = 26073
BSTAR          = .23598074E-3
MEAN_MOTION_DOT = .5531E-4
MEAN_MOTION_DDOT = 0

CCSDS_OMM_VERS = 2.0
CREATION_DATE  = 
ORIGINATOR     = 

OBJECT_NAME    = SL-14 R/B
OBJECT_ID      = 1984-027B
CENTER_NAME    = EARTH
REF_FRAME      = TEME
TIME_SYSTEM    = UTC
MEAN_ELEMENT_THEORY = SGP/SGP4

EPOCH          = 2025-12-21T09:03:20.472192
MEAN_MOTION    = 14.85882928
ECCENTRICITY   = .00166782
INCLINATION    = 82.5418
RA_OF_ASC_NODE = 318.4555
ARG_OF_PERICENTER = 229.6398
MEAN_ANOMALY   = 130.3363

EPHEMERIS_TYPE = 0
CLASSIFICATION_TYPE = U
NORAD_CAT_ID   = 14820
ELEMENT_SET_NO = 999
REV_AT_EPOCH   = 23600
BSTAR          = .46692062E-4
MEAN_MOTION_DOT = .432E-5
MEAN_MOTION_DDOT = 0

CCSDS_OMM_VERS = 2.0
CREATION_DATE  = 
ORIGINATOR     = 

OBJECT_NAME    = SL-8 R/B
OBJECT_ID      = 1985-006B
CENTER_NAME    = EARTH
REF_FRAME      = TEME
TIME_SYSTEM    = UTC
MEAN_ELEMENT_THEORY = SGP/SGP4

EPOCH          = 2025-12-21T12:39:07.320384
MEAN_MOTION    = 14.37726006
ECCENTRICITY   = .00190714
INCLINATION    = 74.0462
RA_OF_ASC_NODE = 44.9676
ARG_OF_PERICENTER = 335.3110
MEAN_ANOMALY   = 129.4220

EPHEMERIS_TYPE = 0
CLASSIFICATION_TYPE = U
NORAD_CAT_ID   = 15483
ELEMENT_SET_NO = 999
REV_AT_EPOCH   = 14279
BSTAR          = .82010162E-4
MEAN_MOTION_DOT = .221E-5
MEAN_MOTION_DDOT = 0

CCSDS_OMM_VERS = 2.0
CREATION_DATE  = 
ORIGINATOR     = 

OBJECT_NAME    = SL-12 R/B(2)
OBJECT_ID      = 1985-042D
CENTER_NAME    = EARTH
REF_FRAME      = TEME
TIME_SYSTEM    = UTC
MEAN_ELEMENT_THEORY = SGP/SGP4

EPOCH          = 2025-12-21T04:44:28.292352
MEAN_MOTION    = 14.21954342
ECCENTRICITY   = .00373987
INCLINATION    = 71.1075
RA_OF_ASC_NODE = 253.5524
ARG_OF_PERICENTER = 249.0699
MEAN_ANOMALY   = 223.0424

EPHEMERIS_TYPE = 0
CLASSIFICATION_TYPE = U
NORAD_CAT_ID   = 15772
ELEMENT_SET_NO = 999
REV_AT_EPOCH   = 10323
BSTAR          = .67834843E-4
MEAN_MOTION_DOT = .103E-5
MEAN_MOTION_DDOT = 0

CCSDS_OMM_VERS = 2.0
CREATION_DATE  = 
ORIGINATOR     = 

OBJECT_NAME    = SL-14 R/B
OBJECT_ID      = 1985-069B
CENTER_NAME    = EARTH
REF_FRAME      = TEME
TIME_SYSTEM    = UTC
MEAN_ELEMENT_THEORY = SGP/SGP4

EPOCH          = 2025-12-21T06:01:53.559840
MEAN_MOTION    = 14.86333680
ECCENTRICITY   = .0020358
INCLINATION    = 82.5273
RA_OF_ASC_NODE = 98.7015
ARG_OF_PERICENTER = 92.3472
MEAN_ANOMALY   = 268.0075

EPHEMERIS_TYPE = 0
CLASSIFICATION_TYPE = U
NORAD_CAT_ID   = 15945
ELEMENT_SET_NO = 999
REV_AT_EPOCH   = 16118
BSTAR          = .48892E-4
MEAN_MOTION_DOT = .457E-5
MEAN_MOTION_DDOT = 0

CCSDS_OMM_VERS = 2.0
CREATION_DATE  = 
ORIGINATOR     = 

OBJECT_NAME    = SL-16 R/B
OBJECT_ID      = 1985-097B
CENTER_NAME    = EARTH
REF_FRAME      = TEME
TIME_SYSTEM    = UTC
MEAN_ELEMENT_THEORY = SGP/SGP4

EPOCH          = 2025-12-21T04:08:41.612640
MEAN_MOTION    = 14.16587826
ECCENTRICITY   = .00072496
INCLINATION    = 71.0038
RA_OF_ASC_NODE = 305.8491
ARG_OF_PERICENTER = 357.1699
MEAN_ANOMALY   = 14.0367

EPHEMERIS_TYPE = 0
CLASSIFICATION_TYPE = U
NORAD_CAT_ID   = 16182
ELEMENT_SET_NO = 999
REV_AT_EPOCH   = 7611
BSTAR          = .3376508E-5
MEAN_MOTION_DOT = -.41E-6
MEAN_MOTION_DDOT = 0

CCSDS_OMM_VERS = 2.0
CREATION_DATE  = 
ORIGINATOR     = 

OBJECT_NAME    = SL-14 R/B
OBJECT_ID      = 1986-006B
CENTER_NAME    = EARTH
REF_FRAME      = TEME
TIME_SYSTEM    = UTC
MEAN_ELEMENT_THEORY = SGP/SGP4

EPOCH          = 2025-12-21T10:47:39.820416
MEAN_MOTION    = 14.86681945
ECCENTRICITY   = .00769267
INCLINATION    = 82.5267
RA_OF_ASC_NODE = 333.3551
ARG_OF_PERICENTER = 170.8510
MEAN_ANOMALY   = 189.4131

EPHEMERIS_TYPE = 0
CLASSIFICATION_TYPE = U
NORAD_CAT_ID   = 16496
ELEMENT_SET_NO = 999
REV_AT_EPOCH   = 13758
BSTAR          = .48290542E-4
MEAN_MOTION_DOT = .48E-5
MEAN_MOTION_DDOT = 0

CCSDS_OMM_VERS = 2.0
CREATION_DATE  = 
ORIGINATOR     = 

OBJECT_NAME    = COSMOS 1743
OBJECT_ID      = 1986-034A
CENTER_NAME    = EARTH
REF_FRAME      = TEME
TIME_SYSTEM    = UTC
MEAN_ELEMENT_THEORY = SGP/SGP4

EPOCH          = 2025-12-21T10:06:04.600512
MEAN_MOTION    = 15.52605056
ECCENTRICITY   = .0004927
INCLINATION    = 82.5344
RA_OF_ASC_NODE = 155.5716
ARG_OF_PERICENTER = 215.9623
MEAN_ANOMALY   = 144.1299

EPHEMERIS_TYPE = 0
CLASSIFICATION_TYPE = U
NORAD_CAT_ID   = 16719
ELEMENT_SET_NO = 999
REV_AT_EPOCH   = 16808
BSTAR          = .42483519E-3
MEAN_MOTION_DOT = .26202E-3
MEAN_MOTION_DDOT = 0

