SL-3 R/B                
1 13403U 82079B   25355.54674634  .00005200  00000+0  21348-3 0  9993
2 13403  81.1480 285.2789 0027031  70.8072 289.6083 15.23682820365796
SL-14 R/B               
1 13553U 82092B   25355.62415074  .00000385  00000+0  40497-4 0  9990
2 13553  82.5674 214.4030 0019840 196.2267 178.0251 14.86563416317335
SL-3 R/B                
1 13819U 83010B   25355.26414832  .00011244  00000+0  24754-3 0  9990
2 13819  81.1051  98.2128 0016725 320.8822  39.1211 15.43669610345837
SL-3 R/B                
1 14208U 83075B   25355.58076268  .00008329  00000+0  23565-3 0  9995
2 14208  97.6101 352.3617 0023677 144.6452 215.6367 15.36298381318153
COSMOS 1536             
1 14699U 84013A   25355.61290453  .00005531  00000+0  23598-3 0  9998
2 14699  82.5440 185.3636 0014212 192.4532 167.6355 15.22612844260738
SL-14 R/B               
1 14820U 84027B   25355.37732028  .00000432  00000+0  46692-4 0  9997
2 14820  82.5418 318.4555 0016678 229.6398 130.3363 14.85882928236008
SL-8 R/B                
1 15483U 85006B   25355.52716806  .00000221  00000+0  82010-4 0  9994
2 15483  74.0462  44.9676 0019071 335.3110 129.4220 14.37726006142795
SL-12 R/B(2)            
1 15772U 85042D   25355.19754968  .00000103  00000+0  67835-4 0  9996
2 15772  71.1075 253.5524 0037398 249.0699 223.0424 14.21954342103231
SL-14 R/B               
1 15945U 85069B   25355.25131435  .00000457  00000+0  48892-4 0  9996
2 15945  82.5273  98.7015 0020358  92.3472 268.0075 14.86333680161185
SL-16 R/B               
1 16182U 85097B   25355.17270385 -.00000041  00000+0  33765-5 0  9994
2 16182  71.0038 305.8491 0007249 357.1699  14.0367 14.16587826 76115
SL-14 R/B               
1 16496U 86006B   25355.44976644  .00000480  00000+0  48291-4 0  9999
2 16496  82.5267 333.3551 0076926 170.8510 189.4131 14.86681945137586
COSMOS 1743             
1 16719U 86034A   25355.42088658  .00026202  00000+0  42484-3 0  9992
2 16719  82.5344 155.5716 0004927 215.9623 144.1299 15.52605056168080
